{"type": "FeatureCollection", "features": [ {"type": "Feature", "properties": {"norad_id": 67101, "name": "STARLINK-36200", "group": "last-30-days", "lat": -38.25433590434899, "lon": 50.92579889833062, "alt_km": 333.39048331176673, "timestamp": "2025-12-25T07:00:32.767531+00:00", "meta": {"OBJECT_NAME": "STARLINK-36200", "OBJECT_ID": "2025-298AC", "EPOCH": "2025-12-24T22:00:03.000096", "MEAN_MOTION": 15.81882843, "ECCENTRICITY": 0.00037751, "INCLINATION": 69.9965, "RA_OF_ASC_NODE": 215.3055, "ARG_OF_PERICENTER": 269.2407, "MEAN_ANOMALY": 336.0226, "EPHEMERIS_TYPE": 0, "CLASSIFICATION_TYPE": "U", "NORAD_CAT_ID": 67101, "ELEMENT_SET_NO": 999, "REV_AT_EPOCH": 293, "BSTAR": -0.0095176462, "MEAN_MOTION_DOT": -0.01680094, "MEAN_MOTION_DDOT": 0}, "tle": {"line1": "1 67101U 25298AC  25358.91670139 -.01680094  00000+0 -95176-2 0  9999", "line2": "2 67101  69.9965 215.3055 0003775 269.2407 336.0226 15.81882843  2938"}}, "geometry": {"type": "Point", "coordinates": [50.92579889833062, -38.25433590434899]}}, {"type": "Feature", "properties": {"norad_id": 67102, "name": "STARLINK-36255", "group": "last-30-days", "lat": 42.888444534023705, "lon": -25.78379495894771, "alt_km": 314.77435725483883, "timestamp": "2025-12-25T07:00:32.767543+00:00", "meta": {"OBJECT_NAME": "STARLINK-36255", "OBJECT_ID": "2025-299A", "EPOCH": "2025-12-24T22:00:03.000096", "MEAN_MOTION": 15.85088133, "ECCENTRICITY": 0.00015197, "INCLINATION": 42.9966, "RA_OF_ASC_NODE": 242.0533, "ARG_OF_PERICENTER": 272.6295, "MEAN_ANOMALY": 197.189, "EPHEMERIS_TYPE": 0, "CLASSIFICATION_TYPE": "U", "NORAD_CAT_ID": 67102, "ELEMENT_SET_NO": 999, "REV_AT_EPOCH": 276, "BSTAR": -0.0084999517, "MEAN_MOTION_DOT": -0.01783782, "MEAN_MOTION_DDOT": 0}, "tle": {"line1": "1 67102U 25299A   25358.91670139 -.01783782  00000+0 -85000-2 0  9994", "line2": "2 67102  42.9966 242.0533 0001519 272.6295 197.1890 15.85088133  2764"}}, "geometry": {"type": "Point", "coordinates": [-25.78379495894771, 42.888444534023705]}}, {"type": "Feature", "properties": {"norad_id": 67103, "name": "STARLINK-36256", "group": "last-30-days", "lat": 42.80452055837819, "lon": -23.995697244794076, "alt_km": 314.70084881944786, "timestamp": "2025-12-25T07:00:32.767554+00:00", "meta": {"OBJECT_NAME": "STARLINK-36256", "OBJECT_ID": "2025-299B", "EPOCH": "2025-12-24T22:00:03.000096", "MEAN_MOTION": 15.85101619, "ECCENTRICITY": 0.00014863, "INCLINATION": 42.9966, "RA_OF_ASC_NODE": 242.0502, "ARG_OF_PERICENTER": 275.8727, "MEAN_ANOMALY": 195.2355, "EPHEMERIS_TYPE": 0, "CLASSIFICATION_TYPE": "U", "NORAD_CAT_ID": 67103, "ELEMENT_SET_NO": 999, "REV_AT_EPOCH": 276, "BSTAR": -0.0084501969, "MEAN_MOTION_DOT": -0.01775828, "MEAN_MOTION_DDOT": 0}, "tle": {"line1": "1 67103U 25299B   25358.91670139 -.01775828  00000+0 -84502-2 0  9993", "line2": "2 67103  42.9966 242.0502 0001486 275.8727 195.2355 15.85101619  2769"}}, "geometry": {"type": "Point", "coordinates": [-23.995697244794076, 42.80452055837819]}}, {"type": "Feature", "properties": {"norad_id": 67104, "name": "STARLINK-36258", "group": "last-30-days", "lat": 42.67651328102952, "lon": -21.986633062424847, "alt_km": 314.73563360110984, "timestamp": "2025-12-25T07:00:32.767564+00:00", "meta": {"OBJECT_NAME": "STARLINK-36258", "OBJECT_ID": "2025-299C", "EPOCH": "2025-12-24T22:00:03.000096", "MEAN_MOTION": 15.85118639, "ECCENTRICITY": 0.00015599, "INCLINATION": 42.9966, "RA_OF_ASC_NODE": 242.0464, "ARG_OF_PERICENTER": 277.3972, "MEAN_ANOMALY": 195.1725, "EPHEMERIS_TYPE": 0, "CLASSIFICATION_TYPE": "U", "NORAD_CAT_ID": 67104, "ELEMENT_SET_NO": 999, "REV_AT_EPOCH": 276, "BSTAR": -0.0084682523, "MEAN_MOTION_DOT": -0.01780417, "MEAN_MOTION_DDOT": 0}, "tle": {"line1": "1 67104U 25299C   25358.91670139 -.01780417  00000+0 -84683-2 0  9994", "line2": "2 67104  42.9966 242.0464 0001559 277.3972 195.1725 15.85118639  2767"}}, "geometry": {"type": "Point", "coordinates": [-21.986633062424847, 42.67651328102952]}}, {"type": "Feature", "properties": {"norad_id": 67105, "name": "STARLINK-36261", "group": "last-30-days", "lat": 42.54187191844473, "lon": -20.307332865734246, "alt_km": 314.65133968600094, "timestamp": "2025-12-25T07:00:32.767574+00:00", "meta": {"OBJECT_NAME": "STARLINK-36261", "OBJECT_ID": "2025-299D", "EPOCH": "2025-12-24T22:00:03.000096", "MEAN_MOTION": 15.85139117, "ECCENTRICITY": 0.00014994, "INCLINATION": 42.9965, "RA_OF_ASC_NODE": 242.0434, "ARG_OF_PERICENTER": 276.4236, "MEAN_ANOMALY": 197.3609, "EPHEMERIS_TYPE": 0, "CLASSIFICATION_TYPE": "U", "NORAD_CAT_ID": 67105, "ELEMENT_SET_NO": 999, "REV_AT_EPOCH": 276, "BSTAR": -0.0084422158, "MEAN_MOTION_DOT": -0.017772, "MEAN_MOTION_DDOT": 0}, "tle": {"line1": "1 67105U 25299D   25358.91670139 -.01777200  00000+0 -84422-2 0  9992", "line2": "2 67105  42.9965 242.0434 0001499 276.4236 197.3609 15.85139117  2769"}}, "geometry": {"type": "Point", "coordinates": [-20.307332865734246, 42.54187191844473]}}, {"type": "Feature", "properties": {"norad_id": 67106, "name": "STARLINK-36259", "group": "last-30-days", "lat": 42.07050732870968, "lon": -15.919932817238907, "alt_km": 314.6451480735859, "timestamp": "2025-12-25T07:00:32.767584+00:00", "meta": {"OBJECT_NAME": "STARLINK-36259", "OBJECT_ID": "2025-299E", "EPOCH": "2025-12-24T22:00:03.000096", "MEAN_MOTION": 15.85162396, "ECCENTRICITY": 0.00014746, "INCLINATION": 42.9967, "RA_OF_ASC_NODE": 242.0354, "ARG_OF_PERICENTER": 268.9336, "MEAN_ANOMALY": 208.1081, "EPHEMERIS_TYPE": 0, "CLASSIFICATION_TYPE": "U", "NORAD_CAT_ID": 67106, "ELEMENT_SET_NO": 999, "REV_AT_EPOCH": 276, "BSTAR": -0.0084713869, "MEAN_MOTION_DOT": -0.01784155, "MEAN_MOTION_DDOT": 0}, "tle": {"line1": "1 67106U 25299E   25358.91670139 -.01784155  00000+0 -84714-2 0  9994", "line2": "2 67106  42.9967 242.0354 0001474 268.9336 208.1081 15.85162396  2763"}}, "geometry": {"type": "Point", "coordinates": [-15.919932817238907, 42.07050732870968]}}, {"type": "Feature", "properties": {"norad_id": 67107, "name": "STARLINK-36196", "group": "last-30-days", "lat": 42.33879096714934, "lon": -18.21288031507396, "alt_km": 314.64360745170507, "timestamp": "2025-12-25T07:00:32.767594+00:00", "meta": {"OBJECT_NAME": "STARLINK-36196", "OBJECT_ID": "2025-299F", "EPOCH": "2025-12-24T22:00:03.000096", "MEAN_MOTION": 15.85148765, "ECCENTRICITY": 0.0001486, "INCLINATION": 42.9967, "RA_OF_ASC_NODE": 242.0397, "ARG_OF_PERICENTER": 274.9711, "MEAN_ANOMALY": 200.3601, "EPHEMERIS_TYPE": 0, "CLASSIFICATION_TYPE": "U", "NORAD_CAT_ID": 67107, "ELEMENT_SET_NO": 999, "REV_AT_EPOCH": 276, "BSTAR": -0.0084305834, "MEAN_MOTION_DOT": -0.01775811, "MEAN_MOTION_DDOT": 0}, "tle": {"line1": "1 67107U 25299F   25358.91670139 -.01775811  00000+0 -84306-2 0  9991", "line2": "2 67107  42.9967 242.0397 0001486 274.9711 200.3601 15.85148765  2764"}}, "geometry": {"type": "Point", "coordinates": [-18.21288031507396, 42.33879096714934]}}, {"type": "Feature", "properties": {"norad_id": 67108, "name": "STARLINK-36208", "group": "last-30-days", "lat": 41.758396146626474, "lon": -13.65810214695867, "alt_km": 314.6040107411063, "timestamp": "2025-12-25T07:00:32.767604+00:00", "meta": {"OBJECT_NAME": "STARLINK-36208", "OBJECT_ID": "2025-299G", "EPOCH": "2025-12-24T22:00:03.000096", "MEAN_MOTION": 15.85165745, "ECCENTRICITY": 0.0001384, "INCLINATION": 42.9968, "RA_OF_ASC_NODE": 242.0309, "ARG_OF_PERICENTER": 269.167, "MEAN_ANOMALY": 209.5801, "EPHEMERIS_TYPE": 0, "CLASSIFICATION_TYPE": "U", "NORAD_CAT_ID": 67108, "ELEMENT_SET_NO": 999, "REV_AT_EPOCH": 276, "BSTAR": -0.0084441376, "MEAN_MOTION_DOT": -0.01779408, "MEAN_MOTION_DDOT": 0}, "tle": {"line1": "1 67108U 25299G   25358.91670139 -.01779408  00000+0 -84441-2 0  9998", "line2": "2 67108  42.9968 242.0309 0001384 269.1670 209.5801 15.85165745  2766"}}, "geometry": {"type": "Point", "coordinates": [-13.65810214695867, 41.758396146626474]}}, {"type": "Feature", "properties": {"norad_id": 67109, "name": "STARLINK-35764", "group": "last-30-days", "lat": 41.372336899982834, "lon": -11.245201236427915, "alt_km": 314.6885118399259, "timestamp": "2025-12-25T07:00:32.767619+00:00", "meta": {"OBJECT_NAME": "STARLINK-35764", "OBJECT_ID": "2025-299H", "EPOCH": "2025-12-24T22:00:03.000096", "MEAN_MOTION": 15.85174576, "ECCENTRICITY": 0.00014358, "INCLINATION": 42.9968, "RA_OF_ASC_NODE": 242.0262, "ARG_OF_PERICENTER": 270.0645, "MEAN_ANOMALY": 210.5221, "EPHEMERIS_TYPE": 0, "CLASSIFICATION_TYPE": "U", "NORAD_CAT_ID": 67109, "ELEMENT_SET_NO": 999, "REV_AT_EPOCH": 265, "BSTAR": -0.008474979, "MEAN_MOTION_DOT": -0.0178567, "MEAN_MOTION_DDOT": 0}, "tle": {"line1": "1 67109U 25299H   25358.91670139 -.01785670  00000+0 -84750-2 0  9990", "line2": "2 67109  42.9968 242.0262 0001435 270.0645 210.5221 15.85174576  2653"}}, "geometry": {"type": "Point", "coordinates": [-11.245201236427915, 41.372336899982834]}}, {"type": "Feature", "properties": {"norad_id": 67110, "name": "STARLINK-35781", "group": "last-30-days", "lat": 40.48550071954631, "lon": -6.668071682913137, "alt_km": 314.85434025293125, "timestamp": "2025-12-25T07:00:32.767630+00:00", "meta": {"OBJECT_NAME": "STARLINK-35781", "OBJECT_ID": "2025-299J", "EPOCH": "2025-12-24T22:00:03.000096", "MEAN_MOTION": 15.8518231, "ECCENTRICITY": 0.00015027, "INCLINATION": 42.9969, "RA_OF_ASC_NODE": 242.0173, "ARG_OF_PERICENTER": 274.7323, "MEAN_ANOMALY": 209.4135, "EPHEMERIS_TYPE": 0, "CLASSIFICATION_TYPE": "U", "NORAD_CAT_ID": 67110, "ELEMENT_SET_NO": 999, "REV_AT_EPOCH": 271, "BSTAR": -0.0084635111, "MEAN_MOTION_DOT": -0.01784257, "MEAN_MOTION_DDOT": 0}, "tle": {"line1": "1 67110U 25299J   25358.91670139 -.01784257  00000+0 -84635-2 0  9994", "line2": "2 67110  42.9969 242.0173 0001502 274.7323 209.4135 15.85182310  2719"}}, "geometry": {"type": "Point", "coordinates": [-6.668071682913137, 40.48550071954631]}}]}